{
    "links": {
        "self": "http://www.neowsapp.com/rest/v1/neo/3673138?api_key=iIulBulltgU6a56xZRHN4H3l9WmuAYTsLGpBGhQ2"
    },
    "id": "3673138",
    "neo_reference_id": "3673138",
    "name": "(2014 KY86)",
    "designation": "2014 KY86",
    "nasa_jpl_url": "http://ssd.jpl.nasa.gov/sbdb.cgi?sstr=3673138",
    "absolute_magnitude_h": 23.6,
    "estimated_diameter": {
        "kilometers": {
            "estimated_diameter_min": 0.0506471459,
            "estimated_diameter_max": 0.1132504611
        },
        "meters": {
            "estimated_diameter_min": 50.6471458835,
            "estimated_diameter_max": 113.2504610618
        },
        "miles": {
            "estimated_diameter_min": 0.0314706677,
            "estimated_diameter_max": 0.0703705522
        },
        "feet": {
            "estimated_diameter_min": 166.1651821003,
            "estimated_diameter_max": 371.5566426699
        }
    },
    "is_potentially_hazardous_asteroid": false,
    "close_approach_data": [
        {
            "close_approach_date": "2014-05-25",
            "close_approach_date_full": "2014-May-25 02:03",
            "epoch_date_close_approach": 1400983380000,
            "relative_velocity": {
                "kilometers_per_second": "22.7719092984",
                "kilometers_per_hour": "81978.8734742216",
                "miles_per_hour": "50938.4839095796"
            },
            "miss_distance": {
                "astronomical": "0.0436505676",
                "lunar": "16.9800707964",
                "kilometers": "6530031.937251012",
                "miles": "4057573.6936154856"
            },
            "orbiting_body": "Earth"
        },
        {
            "close_approach_date": "2098-12-21",
            "close_approach_date_full": "2098-Dec-21 12:29",
            "epoch_date_close_approach": 4070003340000,
            "relative_velocity": {
                "kilometers_per_second": "22.3604112441",
                "kilometers_per_hour": "80497.480478819",
                "miles_per_hour": "50018.003911964"
            },
            "miss_distance": {
                "astronomical": "0.456214914",
                "lunar": "177.467601546",
                "kilometers": "68248779.39663318",
                "miles": "42407825.040090684"
            },
            "orbiting_body": "Earth"
        }
    ],
    "orbital_data": {
        "orbit_id": "6",
        "orbit_determination_date": "2017-04-06 08:40:13",
        "first_observation_date": "2014-05-31",
        "last_observation_date": "2014-06-07",
        "data_arc_in_days": 7,
        "observations_used": 30,
        "orbit_uncertainty": "9",
        "minimum_orbit_intersection": ".0220158",
        "jupiter_tisserand_invariant": "3.826",
        "epoch_osculation": "2456809.5",
        "eccentricity": ".499244653696865",
        "semi_major_axis": "1.709729493143147",
        "inclination": "37.99792261140466",
        "ascending_node_longitude": "246.0426283073923",
        "orbital_period": "816.5626891246362",
        "perihelion_distance": ".8561561844235803",
        "perihelion_argument": "298.1990196119219",
        "aphelion_distance": "2.563302801862715",
        "perihelion_time": "2456756.567598867136",
        "mean_anomaly": "23.33643780400855",
        "mean_motion": ".4408724581647538",
        "equinox": "J2000",
        "orbit_class": {
            "orbit_class_type": "APO",
            "orbit_class_description": "Near-Earth asteroid orbits which cross the Earth’s orbit similar to that of 1862 Apollo",
            "orbit_class_range": "a (semi-major axis) > 1.0 AU; q (perihelion) < 1.017 AU"
        }
    },
    "is_sentry_object": false
}